#aV2019  1 11  0  0  0.00000000     288 DD+AD WGS84 FIT  NGA
## 2035 432000.00000000   300.00000000 58494 0.0000000000000
+   31     1  2  3  5  6  7  8  9 10 11 12 13 14 15 16 17 18
+         19 20 21 22 23 24 25 26 27 28 29 30 31 32  0  0  0
+          0  0  0  0  0  0  0  0  0  0  0  0  0  0  0  0  0
+          0  0  0  0  0  0  0  0  0  0  0  0  0  0  0  0  0
+          0  0  0  0  0  0  0  0  0  0  0  0  0  0  0  0  0
++         2  2  2  2  2  2  2  2  2  2  2  2  2  2  2  2  2
++         2  2  2  2  2  2  2  2  2  2  2  2  2  2  0  0  0
++         0  0  0  0  0  0  0  0  0  0  0  0  0  0  0  0  0
++         0  0  0  0  0  0  0  0  0  0  0  0  0  0  0  0  0
++         0  0  0  0  0  0  0  0  0  0  0  0  0  0  0  0  0
%c cc cc ccc ccc cccc cccc cccc cccc ccccc ccccc ccccc ccccc
%c cc cc ccc ccc cccc cccc cccc cccc ccccc ccccc ccccc ccccc
%f  0.0000000  0.000000000  0.00000000000  0.000000000000000
%f  0.0000000  0.000000000  0.00000000000  0.000000000000000
%i    0    0    0    0      0      0      0      0         0
%i    0    0    0    0      0      0      0      0         0
/*      NGA, ST. LOUIS,MO.                                  
/*   EPHEMERIS COMPUTED FROM 2 DAYS OF DATA                 
/*   EPOCHA v3 SMOOTHER                                     
/*   G1762 IERS2010 SATAF SATAPC                            
*  2019  1 11 11 50  0.00000000
P  1  -6072.483001  18077.633036 -18522.184014   -143.553024                    
V  1 -20818.381211  10451.534863  17481.261357     -0.063435                    
P  2  21640.654252 -15205.042972    754.677263   -110.204012                    
V  2   2016.328864   2538.244928 -31701.720436     -0.101312                    
P  3   4486.501227  17895.063301 -19170.115894    176.458998                    
V  3 -21710.795551 -10842.884538 -15164.349270      0.025723                    
P  5  15994.543991  -7504.333706  19769.152883      0.771117                    
V  5  21793.036099  12999.115354 -12422.106729      0.001479                    
P  6  23481.976037  -4910.034947 -11386.615168    299.039488                    
V  6 -11423.220907   9147.764247 -27381.844199     -0.075102                    
P  7   9621.948976  12215.544539  21799.152982     53.730901                    
V  7 -23551.502395  13395.611751   2465.637027     -0.070560                    
P  8  -6593.307163  23470.179521  10365.870790   -128.686981                    
V  8  -2646.213986 -13082.626347  28250.248443     -0.012983                    
P  9   8376.687455  22621.216682  11060.009626    473.031089                    
V  9  -2366.812943  14190.802087 -27122.409183     -0.045315                    
P 10 -24159.332151 -10645.368597  -3691.746533    137.421568                    
V 10  -2850.558840  -4557.761457  31209.233299     -0.063721                    
P 11  -6389.010320  23865.257244 -10579.672941   -676.821329                    
V 11 -10138.672852   8451.977378  26318.379560      0.052457                    
P 12   -844.559126 -16968.937334 -20663.220185    277.247800                    
V 12  21812.766443  13555.090815 -11962.827976     -0.030687                    
P 13  12506.587022 -17771.302228  15130.588165    -78.680834                    
V 13   -270.759854  19515.939083  22997.374691      0.012621                    
P 14 -15153.472291   1766.219634 -21426.520769    -93.325313                    
V 14   1537.565996 -27906.100615  -3515.473391      0.005963                    
P 15   3109.307537 -25024.239280   7419.516373   -332.684007                    
V 15   4950.110287   9466.769126  29263.015259      0.015622                    
P 16 -16139.091730   5331.656282  20361.757933    -12.066770                    
V 16 -21149.652907 -15206.863898 -12259.889095     -0.023146                    
P 17  13380.135554   9089.875512 -20680.248840     -6.252268                    
V 17  -1890.293338  27060.286991  10367.134649      0.053159                    
P 18 -14796.839324  19176.900915 -11201.896675     14.694334                    
V 18 -12809.343996   5220.208928  27159.020346      0.037903                    
P 19  15024.980822  -1801.684970 -22127.225352   -364.492900                    
V 19  -2279.427261  27231.151829  -3711.476165      0.039893                    
P 20 -21613.951408 -14183.867228   6274.706215    521.001370                    
V 20   8855.290845    -97.023807  29596.626826      0.004318                    
P 21 -12588.866475 -10418.017682  21736.536568   -271.087481                    
V 21  21191.055614 -14727.815318   5510.579656      0.069154                    
P 22  -3605.409508  15680.382904 -20903.271211   -620.216622                    
V 22 -24756.016471 -11318.079433  -4129.185710     -0.087599                    
P 23   2056.341071  26205.144650   1895.479169   -200.857934                    
V 23  -3664.894896   2172.423732 -31499.185658      0.011674                    
P 24   9818.752370 -19532.280408 -15002.041817    -60.643526                    
V 24  17344.794392  -8166.992677  22521.907307     -0.005361                    
P 25 -12629.444370 -18608.728703 -14523.661595   -704.344740                    
V 25  16428.006436   7497.742786 -23964.751476     -0.054585                    
P 26 -22497.784238   -603.516451  14228.792532     93.347336                    
V 26 -14856.790816 -10453.687129 -23750.486504      0.106305                    
P 27 -11768.111658  15628.168160  17742.565755    -47.158514                    
V 27  -1787.373931 -22747.679265  19035.518137     -0.065105                    
P 28  22378.153099  14015.113781  -1758.867762    761.590868                    
V 28   1218.873597   3502.218544  32217.879091      0.010573                    
P 29  -4254.572111 -24812.798845   8446.025459    295.699674                    
V 29   2483.095717 -10606.603352 -29834.924919     -0.084460                    
P 30  19372.727784   4353.602305  17735.560611    -34.138863                    
V 30 -19031.604344  12115.375631  17657.890801     -0.061072                    
P 31 -24501.069413   6697.358325  -8493.409285     66.532442                    
V 31   8274.508169  -7103.345396 -29000.201984     -0.026794                    
P 32 -14984.042380  -5887.895457 -21103.207060   -279.650686                    
V 32    206.365960 -26888.470074   7240.185859      0.169745                    
EOF
